ONEWEB-0363             
1 49289U 21090L   25025.51836791 -.00000163  00000+0 -43217-3 0  9999
2 49289  87.9258  15.4435 0001625  72.5517 287.5794 13.20770360163298
ONEWEB-0364             
1 49290U 21090M   25025.48049346  .00000086  00000+0  17952-3 0  9998
2 49290  87.9260  15.4794 0001648  85.5155 274.6167 13.20769933164429
ONEWEB-0365             
1 49291U 21090N   25025.51745022  .00000043  00000+0  76153-4 0  9999
2 49291  87.9139  45.8784 0001841  96.4382 263.6960 13.19723503159467
ONEWEB-0366             
1 49292U 21090P   25025.50191732 -.00000165  00000+0 -47954-3 0  9995
2 49292  87.8990  30.6615 0001711  88.1277 272.0049 13.14501855160861
ONEWEB-0367             
1 49293U 21090Q   25025.51680144  .00000164  00000+0  37217-3 0  9995
2 49293  87.9260  15.4390 0001760  90.2291 269.9044 13.20774785162816
ONEWEB-0368             
1 49294U 21090R   25025.56572517  .00001126  00000+0  27375-2 0  9997
2 49294  87.9260  15.4615 0000876  95.1038 265.0196 13.20767193163975
ONEWEB-0369             
1 49295U 21090S   25025.51271172  .00000047  00000+0  85980-4 0  9995
2 49295  87.9145  45.8977 0001783  95.8871 264.2465 13.19723558159459
ONEWEB-0370             
1 49296U 21090T   25025.52628909  .00000125  00000+0  27491-3 0  9990
2 49296  87.9260  15.4421 0002189  87.8692 272.2692 13.20770090162852
